{"type": "FeatureCollection", "features": [ {"type": "Feature", "properties": {"norad_id": 34031, "name": "COSMOS 2251 DEB", "group": "cosmos-2251-debris", "lat": 1.035577954162635, "lon": 144.3420628198299, "alt_km": 698.8175794941681, "timestamp": "2025-12-08T08:59:01.159977+00:00", "meta": {"OBJECT_NAME": "COSMOS 2251 DEB", "OBJECT_ID": "1993-036HS", "EPOCH": "2025-12-07T22:09:59.116896", "MEAN_MOTION": 14.59595142, "ECCENTRICITY": 0.00229988, "INCLINATION": 74.0124, "RA_OF_ASC_NODE": 144.9055, "ARG_OF_PERICENTER": 265.4775, "MEAN_ANOMALY": 248.1028, "EPHEMERIS_TYPE": 0, "CLASSIFICATION_TYPE": "U", "NORAD_CAT_ID": 34031, "ELEMENT_SET_NO": 999, "REV_AT_EPOCH": 88495, "BSTAR": 0.0016640932, "MEAN_MOTION_DOT": 7.924e-05, "MEAN_MOTION_DDOT": 0}, "tle": {"line1": "1 34031U 93036HS  25341.92360089  .00007924  00000+0  16641-2 0  9995", "line2": "2 34031  74.0124 144.9055 0022998 265.4775 248.1028 14.59595142884959"}}, "geometry": {"type": "Point", "coordinates": [144.3420628198299, 1.035577954162635]}}, {"type": "Feature", "properties": {"norad_id": 34035, "name": "COSMOS 2251 DEB", "group": "cosmos-2251-debris", "lat": -68.15178200080476, "lon": -48.094285564665775, "alt_km": 718.0507506089161, "timestamp": "2025-12-08T08:59:01.159988+00:00", "meta": {"OBJECT_NAME": "COSMOS 2251 DEB", "OBJECT_ID": "1993-036HW", "EPOCH": "2025-12-07T20:20:34.827648", "MEAN_MOTION": 14.51845756, "ECCENTRICITY": 0.0044359, "INCLINATION": 74.0656, "RA_OF_ASC_NODE": 358.338, "ARG_OF_PERICENTER": 0.9594, "MEAN_ANOMALY": 52.9767, "EPHEMERIS_TYPE": 0, "CLASSIFICATION_TYPE": "U", "NORAD_CAT_ID": 34035, "ELEMENT_SET_NO": 999, "REV_AT_EPOCH": 87895, "BSTAR": 0.001972347, "MEAN_MOTION_DOT": 8.025e-05, "MEAN_MOTION_DDOT": 0}, "tle": {"line1": "1 34035U 93036HW  25341.84762532  .00008025  00000+0  19723-2 0  9996", "line2": "2 34035  74.0656 358.3380 0044359   0.9594  52.9767 14.51845756878956"}}, "geometry": {"type": "Point", "coordinates": [-48.094285564665775, -68.15178200080476]}}, {"type": "Feature", "properties": {"norad_id": 34036, "name": "COSMOS 2251 DEB", "group": "cosmos-2251-debris", "lat": -50.957430263425394, "lon": -1.2343923116609794, "alt_km": 583.5391886343441, "timestamp": "2025-12-08T08:59:01.159999+00:00", "meta": {"OBJECT_NAME": "COSMOS 2251 DEB", "OBJECT_ID": "1993-036HX", "EPOCH": "2025-12-07T15:52:26.941152", "MEAN_MOTION": 14.94350762, "ECCENTRICITY": 0.00136947, "INCLINATION": 74.0204, "RA_OF_ASC_NODE": 159.5115, "ARG_OF_PERICENTER": 193.9091, "MEAN_ANOMALY": 166.1718, "EPHEMERIS_TYPE": 0, "CLASSIFICATION_TYPE": "U", "NORAD_CAT_ID": 34036, "ELEMENT_SET_NO": 999, "REV_AT_EPOCH": 88494, "BSTAR": 0.006023881, "MEAN_MOTION_DOT": 0.000655, "MEAN_MOTION_DDOT": 0}, "tle": {"line1": "1 34036U 93036HX  25341.66142293  .00065500  00000+0  60239-2 0  9992", "line2": "2 34036  74.0204 159.5115 0013694 193.9091 166.1718 14.94350762884941"}}, "geometry": {"type": "Point", "coordinates": [-1.2343923116609794, -50.957430263425394]}}, {"type": "Feature", "properties": {"norad_id": 34037, "name": "COSMOS 2251 DEB", "group": "cosmos-2251-debris", "lat": 22.71147270134906, "lon": -128.4410736697175, "alt_km": 749.666830166334, "timestamp": "2025-12-08T08:59:01.160010+00:00", "meta": {"OBJECT_NAME": "COSMOS 2251 DEB", "OBJECT_ID": "1993-036HY", "EPOCH": "2025-12-07T22:13:16.336128", "MEAN_MOTION": 14.34645174, "ECCENTRICITY": 0.0052179, "INCLINATION": 74.0524, "RA_OF_ASC_NODE": 59.2528, "ARG_OF_PERICENTER": 110.7259, "MEAN_ANOMALY": 249.9497, "EPHEMERIS_TYPE": 0, "CLASSIFICATION_TYPE": "U", "NORAD_CAT_ID": 34037, "ELEMENT_SET_NO": 999, "REV_AT_EPOCH": 87648, "BSTAR": 0.00073701176, "MEAN_MOTION_DOT": 2.091e-05, "MEAN_MOTION_DDOT": 0}, "tle": {"line1": "1 34037U 93036HY  25341.92588352  .00002091  00000+0  73701-3 0  9997", "line2": "2 34037  74.0524  59.2528 0052179 110.7259 249.9497 14.34645174876487"}}, "geometry": {"type": "Point", "coordinates": [-128.4410736697175, 22.71147270134906]}}, {"type": "Feature", "properties": {"norad_id": 34040, "name": "COSMOS 2251 DEB", "group": "cosmos-2251-debris", "lat": 4.668354976501477, "lon": 74.42297262708264, "alt_km": 771.974152662593, "timestamp": "2025-12-08T08:59:01.160020+00:00", "meta": {"OBJECT_NAME": "COSMOS 2251 DEB", "OBJECT_ID": "1993-036JB", "EPOCH": "2025-12-07T17:10:14.196576", "MEAN_MOTION": 13.68366335, "ECCENTRICITY": 0.03428906, "INCLINATION": 73.9559, "RA_OF_ASC_NODE": 74.1648, "ARG_OF_PERICENTER": 28.5701, "MEAN_ANOMALY": 333.3736, "EPHEMERIS_TYPE": 0, "CLASSIFICATION_TYPE": "U", "NORAD_CAT_ID": 34040, "ELEMENT_SET_NO": 999, "REV_AT_EPOCH": 83531, "BSTAR": 0.00058752485, "MEAN_MOTION_DOT": 7.35e-06, "MEAN_MOTION_DDOT": 0}, "tle": {"line1": "1 34040U 93036JB  25341.71544209  .00000735  00000+0  58752-3 0  9993", "line2": "2 34040  73.9559  74.1648 0342890  28.5701 333.3736 13.68366335835312"}}, "geometry": {"type": "Point", "coordinates": [74.42297262708264, 4.668354976501477]}}, {"type": "Feature", "properties": {"norad_id": 34045, "name": "COSMOS 2251 DEB", "group": "cosmos-2251-debris", "lat": -28.57605987604393, "lon": 147.78808091323768, "alt_km": 801.374157267277, "timestamp": "2025-12-08T08:59:01.160031+00:00", "meta": {"OBJECT_NAME": "COSMOS 2251 DEB", "OBJECT_ID": "1993-036JG", "EPOCH": "2025-12-07T23:53:53.504160", "MEAN_MOTION": 14.34064472, "ECCENTRICITY": 0.00254959, "INCLINATION": 74.0387, "RA_OF_ASC_NODE": 319.5123, "ARG_OF_PERICENTER": 44.3906, "MEAN_ANOMALY": 11.6853, "EPHEMERIS_TYPE": 0, "CLASSIFICATION_TYPE": "U", "NORAD_CAT_ID": 34045, "ELEMENT_SET_NO": 999, "REV_AT_EPOCH": 87965, "BSTAR": 0.00015621911, "MEAN_MOTION_DOT": 4.12e-06, "MEAN_MOTION_DDOT": 0}, "tle": {"line1": "1 34045U 93036JG  25341.99575815  .00000412  00000+0  15622-3 0  9996", "line2": "2 34045  74.0387 319.5123 0025495  44.3906  11.6853 14.34064472879656"}}, "geometry": {"type": "Point", "coordinates": [147.78808091323768, -28.57605987604393]}}, {"type": "Feature", "properties": {"norad_id": 34046, "name": "COSMOS 2251 DEB", "group": "cosmos-2251-debris", "lat": 3.090157553619187, "lon": 19.509625436953037, "alt_km": 748.4727555841309, "timestamp": "2025-12-08T08:59:01.160041+00:00", "meta": {"OBJECT_NAME": "COSMOS 2251 DEB", "OBJECT_ID": "1993-036JH", "EPOCH": "2025-12-07T13:45:47.229120", "MEAN_MOTION": 14.46411066, "ECCENTRICITY": 0.00746639, "INCLINATION": 74.0394, "RA_OF_ASC_NODE": 20.1188, "ARG_OF_PERICENTER": 105.0894, "MEAN_ANOMALY": 50.6416, "EPHEMERIS_TYPE": 0, "CLASSIFICATION_TYPE": "U", "NORAD_CAT_ID": 34046, "ELEMENT_SET_NO": 999, "REV_AT_EPOCH": 87751, "BSTAR": 0.0018464451, "MEAN_MOTION_DOT": 6.847e-05, "MEAN_MOTION_DDOT": 0}, "tle": {"line1": "1 34046U 93036JH  25341.57346330  .00006847  00000+0  18464-2 0  9993", "line2": "2 34046  74.0394  20.1188 0074663 105.0894  50.6416 14.46411066877512"}}, "geometry": {"type": "Point", "coordinates": [19.509625436953037, 3.090157553619187]}}, {"type": "Feature", "properties": {"norad_id": 34050, "name": "COSMOS 2251 DEB", "group": "cosmos-2251-debris", "lat": -49.511309863304206, "lon": -1.9767076954659208, "alt_km": 1022.8728177510811, "timestamp": "2025-12-08T08:59:01.160052+00:00", "meta": {"OBJECT_NAME": "COSMOS 2251 DEB", "OBJECT_ID": "1993-036JM", "EPOCH": "2025-12-06T09:09:45.893952", "MEAN_MOTION": 13.96165357, "ECCENTRICITY": 0.02146149, "INCLINATION": 74.0887, "RA_OF_ASC_NODE": 20.9585, "ARG_OF_PERICENTER": 86.9094, "MEAN_ANOMALY": 291.642, "EPHEMERIS_TYPE": 0, "CLASSIFICATION_TYPE": "U", "NORAD_CAT_ID": 34050, "ELEMENT_SET_NO": 999, "REV_AT_EPOCH": 85343, "BSTAR": 0.00092583138, "MEAN_MOTION_DOT": 1.522e-05, "MEAN_MOTION_DDOT": 0}, "tle": {"line1": "1 34050U 93036JM  25340.38178118  .00001522  00000+0  92583-3 0  9993", "line2": "2 34050  74.0887  20.9585 0214614  86.9094 291.6420 13.96165357853434"}}, "geometry": {"type": "Point", "coordinates": [-1.9767076954659208, -49.511309863304206]}}, {"type": "Feature", "properties": {"norad_id": 34053, "name": "COSMOS 2251 DEB", "group": "cosmos-2251-debris", "lat": -59.97915076540226, "lon": -140.90236044069448, "alt_km": 1139.0203510163683, "timestamp": "2025-12-08T08:59:01.160062+00:00", "meta": {"OBJECT_NAME": "COSMOS 2251 DEB", "OBJECT_ID": "1993-036JQ", "EPOCH": "2025-12-07T19:03:25.275456", "MEAN_MOTION": 13.49149649, "ECCENTRICITY": 0.04219223, "INCLINATION": 73.8444, "RA_OF_ASC_NODE": 250.1403, "ARG_OF_PERICENTER": 39.516, "MEAN_ANOMALY": 323.5914, "EPHEMERIS_TYPE": 0, "CLASSIFICATION_TYPE": "U", "NORAD_CAT_ID": 34053, "ELEMENT_SET_NO": 999, "REV_AT_EPOCH": 82617, "BSTAR": 0.001326619, "MEAN_MOTION_DOT": 1.424e-05, "MEAN_MOTION_DDOT": 0}, "tle": {"line1": "1 34053U 93036JQ  25341.79404254  .00001424  00000+0  13266-2 0  9996", "line2": "2 34053  73.8444 250.1403 0421922  39.5160 323.5914 13.49149649826177"}}, "geometry": {"type": "Point", "coordinates": [-140.90236044069448, -59.97915076540226]}}, {"type": "Feature", "properties": {"norad_id": 34056, "name": "COSMOS 2251 DEB", "group": "cosmos-2251-debris", "lat": 65.63369466148193, "lon": 123.30835973722944, "alt_km": 773.6226998361317, "timestamp": "2025-12-08T08:59:01.160072+00:00", "meta": {"OBJECT_NAME": "COSMOS 2251 DEB", "OBJECT_ID": "1993-036JT", "EPOCH": "2025-12-07T18:00:56.707776", "MEAN_MOTION": 14.20523477, "ECCENTRICITY": 0.01243367, "INCLINATION": 74.0601, "RA_OF_ASC_NODE": 85.2981, "ARG_OF_PERICENTER": 134.426, "MEAN_ANOMALY": 350.113, "EPHEMERIS_TYPE": 0, "CLASSIFICATION_TYPE": "U", "NORAD_CAT_ID": 34056, "ELEMENT_SET_NO": 999, "REV_AT_EPOCH": 86340, "BSTAR": 0.0018432644, "MEAN_MOTION_DOT": 4.258e-05, "MEAN_MOTION_DDOT": 0}, "tle": {"line1": "1 34056U 93036JT  25341.75065634  .00004258  00000+0  18433-2 0  9999", "line2": "2 34056  74.0601  85.2981 0124336 134.4260 350.1130 14.20523477863409"}}, "geometry": {"type": "Point", "coordinates": [123.30835973722944, 65.63369466148193]}}]}